NORAD_CAT_ID,OBJECT_NAME,OBJECT_TYPE,EPOCH,MEAN_MOTION,ECCENTRICITY,INCLINATION,RA_OF_ASC_NODE,ARG_OF_PERICENTER,MEAN_ANOMALY,BSTAR,MEAN_MOTION_DOT,MEAN_MOTION_DDOT,TLE_LINE0,TLE_LINE1,TLE_LINE2,SEMIMAJOR_AXIS,PERIOD,APOGEE,PERIGEE,DECAYED
56803.0,STARLINK-6029,PAYLOAD,2023-10-05 20:00:01,15.13125644,0.0003388,70.0007,58.2196,274.2567,34.7082,-0.053988,-0.00889644,0.0,0 STARLINK-6029,1 56803U 23078AN  23278.83334491 -.00889644  00000-0 -53988-1 0  9994,2 56803  70.0007  58.2196 0003388 274.2567  34.7082 15.13125644 20248,6904.812,95.167,529.016,524.337,0.0
56803.0,STARLINK-6029,PAYLOAD,2023-10-05 22:00:00,15.12981699,0.0003382,70.0004,58.0047,276.2898,126.454,-0.056294,-0.00921415,0.0,0 STARLINK-6029,1 56803U 23078AN  23278.91667824 -.00921415  00000-0 -56294-1 0  9998,2 56803  70.0004  58.0047 0003382 276.2898 126.4540 15.12981699  5993,6905.25,95.176,529.45,524.779,0.0
56803.0,STARLINK-6029,PAYLOAD,2023-10-06 04:00:00,15.12472196,0.0003283,70.0006,57.3601,269.2282,54.5886,-0.055637,-0.00899404,0.0,0 STARLINK-6029,1 56803U 23078AN  23279.16667824 -.00899404  00000-0 -55637-1 0  9998,2 56803  70.0006  57.3601 0003283 269.2282  54.5886 15.12472196 20293,6906.8,95.208,530.933,526.398,0.0
56803.0,STARLINK-6029,PAYLOAD,2023-10-06 14:00:01,15.11688964,0.0003301,70.0008,56.2869,272.377,158.9551,-0.060065,-0.00946197,0.0,0 STARLINK-6029,1 56803U 23078AN  23279.58335648 -.00946197  00000-0 -60065-1 0  9993,2 56803  70.0008  56.2869 0003301 272.3770 158.9551 15.11688964  6100,6909.186,95.258,533.332,528.77,0.0
56803.0,STARLINK-6029,PAYLOAD,2023-10-06 20:00:01,15.11170027,0.0003412,70.0005,55.6435,274.9785,76.1898,-0.057132,-0.00891263,0.0,0 STARLINK-6029,1 56803U 23078AN  23279.83334491 -.00891263  00000-0 -57132-1 0  9990,2 56803  70.0005  55.6435 0003412 274.9785  76.1898 15.11170027 20394,6910.768,95.29,534.991,530.275,0.0
56803.0,STARLINK-6029,PAYLOAD,2023-10-06 22:00:01,15.1102677,0.0003297,70.0003,55.4292,276.6882,167.7353,-0.059708,-0.0092506,0.0,0 STARLINK-6029,1 56803U 23078AN  23279.91668981 -.00925060  00000-0 -59708-1 0  9997,2 56803  70.0003  55.4292 0003297 276.6882 167.7353 15.11026770  6009,6911.204,95.299,535.348,530.791,0.0
56803.0,STARLINK-6029,PAYLOAD,2023-10-07 12:00:00,15.09903563,0.0003349,70.0007,53.9306,269.8958,105.4833,-0.063486,-0.00951331,0.0,0 STARLINK-6029,1 56803U 23078AN  23280.50001157 -.00951331  00000-0 -63486-1 0  9998,2 56803  70.0007  53.9306 0003349 269.8958 105.4833 15.09903563 20490,6914.631,95.37,538.812,534.181,0.0
56803.0,STARLINK-6029,PAYLOAD,2023-10-07 14:00:01,15.09730459,0.000325,70.0006,53.7168,272.2857,195.9088,-0.063273,-0.00944177,0.0,0 STARLINK-6029,1 56803U 23078AN  23280.58334491 -.00944177  00000-0 -63273-1 0  9990,2 56803  70.0006  53.7168 0003250 272.2857 195.9088 15.09730459  5952,6915.16,95.381,539.272,534.778,0.0
56803.0,STARLINK-6029,PAYLOAD,2023-10-07 22:00:00,15.09071973,0.0003224,70.0002,52.8616,276.1642,202.7724,-0.063326,-0.0092917,0.0,0 STARLINK-6029,1 56803U 23078AN  23280.91667824 -.00929170  00000-0 -63326-1 0  9991,2 56803  70.0002  52.8616 0003224 276.1642 202.7724 15.09071973  6002,6917.171,95.423,541.267,536.806,0.0
56803.0,STARLINK-6029,PAYLOAD,2023-10-08 12:00:00,15.07945902,0.0003302,70.0006,51.3675,270.3883,135.4614,-0.066996,-0.00951336,0.0,0 STARLINK-6029,1 56803U 23078AN  23281.50001157 -.00951336  00000-0 -66996-1 0  9993,2 56803  70.0006  51.3675 0003302 270.3883 135.4614 15.07945902 20641,6920.615,95.494,544.765,540.194,0.0
56803.0,STARLINK-6029,PAYLOAD,2023-10-08 14:00:01,15.07770719,0.000319,70.0005,51.1543,271.8071,226.2717,-0.066473,-0.00940275,0.0,0 STARLINK-6029,1 56803U 23078AN  23281.58334491 -.00940275  00000-0 -66473-1 0  9991,2 56803  70.0005  51.1543 0003190 271.8071 226.2717 15.07770719  5943,6921.151,95.505,545.224,540.808,0.0
56803.0,STARLINK-6029,PAYLOAD,2023-10-08 22:00:00,15.07117451,0.0003155,70.0002,50.3018,275.3198,231.1526,-0.067218,-0.00934487,0.0,0 STARLINK-6029,1 56803U 23078AN  23281.91667824 -.00934487  00000-0 -67218-1 0  9993,2 56803  70.0002  50.3018 0003155 275.3198 231.1526 15.07117451  5994,6923.151,95.547,547.2,542.831,0.0
56803.0,STARLINK-6029,PAYLOAD,2023-10-09 06:00:02,15.06428598,0.0003126,70.0003,49.4503,268.7243,245.4338,-0.063476,-0.00870852,0.0,0 STARLINK-6029,1 56803U 23078AN  23282.25002315 -.00870852  00000-0 -63476-1 0  9996,2 56803  70.0003  49.4503 0003126 268.7243 245.4338 15.06428598 20765,6925.261,95.59,549.291,544.961,0.0
56803.0,STARLINK-6029,PAYLOAD,2023-10-09 14:00:01,15.05809883,0.000315,70.0006,48.5997,271.369,249.5536,-0.06965,-0.0093455,0.0,0 STARLINK-6029,1 56803U 23078AN  23282.58334491 -.00934550  00000-0 -69650-1 0  9991,2 56803  70.0006  48.5997 0003150 271.3690 249.5536 15.05809883  5989,6927.158,95.63,551.205,546.841,0.0
56803.0,STARLINK-6029,PAYLOAD,2023-10-09 22:00:00,15.05163493,0.0003101,70.0003,47.7497,274.2169,252.7514,-0.071339,-0.00940191,0.0,0 STARLINK-6029,1 56803U 23078AN  23282.91667824 -.00940191  00000-0 -71339-1 0  9992,2 56803  70.0003  47.7497 0003101 274.2169 252.7514 15.05163493 20867,6929.141,95.671,553.155,548.857,0.0
56803.0,STARLINK-6029,PAYLOAD,2023-10-10 14:00:01,15.03850016,0.0003151,70.0008,46.0528,271.3858,265.34,-0.073017,-0.00929801,0.0,0 STARLINK-6029,1 56803U 23078AN  23283.58334491 -.00929801  00000-0 -73017-1 0  9997,2 56803  70.0008  46.0528 0003151 271.3858 265.3400 15.03850016  5989,6933.175,95.754,557.225,552.855,0.0
56803.0,STARLINK-6029,PAYLOAD,2023-10-10 22:00:01,15.03208936,0.00031,70.0006,45.2054,274.2002,266.2844,-0.075639,-0.00956442,0.0,0 STARLINK-6029,1 56803U 23078AN  23283.91668981 -.00956442  00000-0 -75639-1 0  9991,2 56803  70.0006  45.2054 0003100 274.2002 266.2844 15.03208936 21011,6935.146,95.795,559.161,554.861,0.0
56803.0,STARLINK-6029,PAYLOAD,2023-10-11 14:00:01,15.01887304,0.0003121,70.0011,43.5137,271.9797,273.5094,-0.076068,-0.00920098,0.0,0 STARLINK-6029,1 56803U 23078AN  23284.58334491 -.00920098  00000-0 -76068-1 0  9996,2 56803  70.0011  43.5137 0003121 271.9797 273.5094 15.01887304 21117,6939.214,95.879,563.245,558.913,0.0
56803.0,STARLINK-6029,PAYLOAD,2023-10-12 14:00:01,14.99838682,0.0003195,70.0014,40.9825,272.768,274.4593,-0.058447,-0.0067705,0.0,0 STARLINK-6029,1 56803U 23078AN  23285.58334491 -.00677050  00000-0 -58447-1 0  9995,2 56803  70.0014  40.9825 0003195 272.7680 274.4593 14.99838682  5966,6945.531,96.01,569.615,565.177,0.0
56803.0,STARLINK-6029,PAYLOAD,2023-10-12 22:00:01,14.99323388,0.0003119,70.0013,40.1403,275.0138,271.2662,-0.0045633,-0.00055524,0.0,0 STARLINK-6029,1 56803U 23078AN  23285.91668981 -.00055524  00000-0 -45633-2 0  9996,2 56803  70.0013  40.1403 0003119 275.0138 271.2662 14.99323388 21310,6947.123,96.043,571.154,566.821,0.0
56803.0,STARLINK-6029,PAYLOAD,2023-10-13 14:00:01,14.99306972,0.0003175,70.0017,38.4572,272.8413,270.6637,-0.0016971,-0.00020802,0.0,0 STARLINK-6029,1 56803U 23078AN  23286.58334491 -.00020802  00000-0 -16971-2 0  9990,2 56803  70.0017  38.4572 0003175 272.8413 270.6637 14.99306972 21410,6947.173,96.044,571.244,566.833,0.0
56803.0,STARLINK-6029,PAYLOAD,2023-10-13 20:00:01,14.99306742,0.0003147,70.0015,37.8259,274.5673,177.9415,0.0002195,2.593e-05,0.0,0 STARLINK-6029,1 56803U 23078AN  23286.83334491  .00002593  00000-0  21950-3 0  9997,2 56803  70.0015  37.8259 0003147 274.5673 177.9415 14.99306742 21440,6947.174,96.044,571.225,566.853,0.0
56803.0,STARLINK-6029,PAYLOAD,2023-10-13 22:00:00,14.99317135,0.0003096,70.0016,37.6155,273.1273,269.0425,-0.0017165,-0.00021043,0.0,0 STARLINK-6029,1 56803U 23078AN  23286.91667824 -.00021043  00000-0 -17165-2 0  9990,2 56803  70.0016  37.6155 0003096 273.1273 269.0425 14.99317135  5914,6947.142,96.044,571.158,566.856,0.0
56803.0,STARLINK-6029,PAYLOAD,2023-10-14 14:00:01,14.99361066,0.0003109,70.0019,35.9322,269.9377,269.615,-0.0078485,-0.00094991,0.0,0 STARLINK-6029,1 56803U 23078AN  23287.58335648 -.00094991  00000-0 -78485-2 0  9994,2 56803  70.0019  35.9322 0003109 269.9377 269.6150 14.99361066  5965,6947.006,96.041,571.031,566.711,0.0
56803.0,STARLINK-6029,PAYLOAD,2023-10-14 20:00:01,14.99298827,0.0003086,70.0018,35.3009,269.8579,178.7142,-0.003746,-0.00045631,0.0,0 STARLINK-6029,1 56803U 23078AN  23287.83335648 -.00045631  00000-0 -37460-2 0  9997,2 56803  70.0018  35.3009 0003086 269.8579 178.7142 14.99298827 21599,6947.198,96.045,571.207,566.92,0.0
56803.0,STARLINK-6029,PAYLOAD,2023-10-14 22:00:00,14.99289462,0.0003049,70.0017,35.0905,267.841,270.3291,-0.0033777,-0.0004117,0.0,0 STARLINK-6029,1 56803U 23078AN  23287.91667824 -.00041170  00000-0 -33777-2 0  9991,2 56803  70.0017  35.0905 0003049 267.8410 270.3291 14.99289462  5806,6947.227,96.045,571.211,566.974,0.0
56803.0,STARLINK-6029,PAYLOAD,2023-10-15 12:00:00,14.99311519,0.0003157,70.0022,33.6179,265.4582,180.2797,-0.0037765,-0.00046015,0.0,0 STARLINK-6029,1 56803U 23078AN  23288.50001157 -.00046015  00000-0 -37765-2 0  9992,2 56803  70.0022  33.6179 0003157 265.4582 180.2797 14.99311519 21697,6947.159,96.044,571.217,566.831,0.0
56803.0,STARLINK-6029,PAYLOAD,2023-10-15 14:00:01,14.9932036,0.0003037,70.0021,33.4074,266.6771,268.7203,-0.0064654,-0.00078369,0.0,0 STARLINK-6029,1 56803U 23078AN  23288.58334491 -.00078369  00000-0 -64654-2 0  9994,2 56803  70.0021  33.4074 0003037 266.6771 268.7203 14.99320360  5902,6947.132,96.044,571.107,566.887,0.0
56803.0,STARLINK-6029,PAYLOAD,2023-10-15 20:00:01,14.99505656,0.0003223,70.0018,32.7757,270.7234,173.6876,-0.073897,-0.00845024,0.0,0 STARLINK-6029,1 56803U 23078AN  23288.83335648 -.00845024  00000-0 -73897-1 0  9995,2 56803  70.0018  32.7757 0003223 270.7234 173.6876 14.99505656 21748,6946.56,96.032,570.664,566.186,0.0
56803.0,STARLINK-6029,PAYLOAD,2023-10-15 22:00:00,14.99421717,0.0003092,70.0018,32.5655,266.4411,267.5852,-0.085704,-0.00978966,0.0,0 STARLINK-6029,1 56803U 23078AN  23288.91667824 -.00978966  00000-0 -85704-1 0  9990,2 56803  70.0018  32.5655 0003092 266.4411 267.5852 14.99421717  5953,6946.819,96.037,570.832,566.536,0.0
